KOREASAT 5 (MUGUNGWHA 5)
1 29349U 06034A   26164.92692566 -.00000349  00000+0  00000+0 0  9999
2 29349   1.7767  83.0231 0001339  50.1876 215.7825  1.00271400 41287
DIRECTV 9S
1 29494U 06043A   26164.88448873 -.00000105  00000+0  00000+0 0  9995
2 29494   2.4120  80.9408 0004834  11.0248  27.4537  1.00270835 51351
OPTUS D1
1 29495U 06043B   26164.86325530 -.00000176  00000+0  00000+0 0  9996
2 29495   3.0261  79.6938 0003331 358.2619 286.9746  1.00269974 72086
BADR-4
1 29526U 06051A   26164.92103366  .00000164  00000+0  00000+0 0  9994
2 29526   1.9962  81.1562 0004739 352.8101 194.2800  1.00269249 51237
WILDBLUE-1
1 29643U 06054A   26164.59731461 -.00000040  00000+0  00000+0 0  9997
2 29643   2.7936  80.5258 0001250 357.0063 288.2110  1.00270349 53751
SKYNET 5A
1 30794U 07007B   26164.86040277 -.00000265  00000+0  00000+0 0  9992
2 30794   5.2925  73.7819 0004063  15.1563 218.1902  1.00270373 70662
ANIK F3
1 31102U 07009A   26164.88102205  .00000008  00000+0  00000+0 0  9994
2 31102   1.1887  83.8859 0002419 355.8466  20.8816  1.00271311 46537
ASTRA 1L
1 31306U 07016A   26164.82832473 -.00000175  00000+0  00000+0 0  9995
2 31306   1.3129  81.6003 0005116   9.3909  84.8664  1.00271716 44955
GALAXY 17 (G-17)
1 31307U 07016B   26164.88769541 -.00000198  00000+0  00000+0 0  9992
2 31307   2.9637  79.9408 0004746  21.7162  35.1031  1.00269685 69779
INTELSAT 11 (IS-11)
1 32253U 07044B   26164.93229903 -.00000275  00000+0  00000+0 0  9999
2 32253   3.5568  78.7072 0002195  91.0886 208.2372  0.99052194 68416
WGS F1 (USA 195)
1 32258U 07046A   26164.75352196 -.00000257  00000+0  00000+0 0  9997
2 32258   0.0476  94.6469 0000141 320.8650  75.3295  1.00269422 52304
SKYNET 5B
1 32294U 07056B   26164.91324365  .00000146  00000+0  00000+0 0  9999
2 32294   5.2443  73.5453 0004032   2.7551 179.7696  1.00273220 68169
ASTRA 4A
1 32299U 07057A   26164.90546034  .00000042  00000+0  00000+0 0  9998
2 32299   0.0117 350.9577 0002112  95.0744 146.9423  1.00270761 51613
HORIZONS-2
1 32388U 07063B   26164.88986208 -.00000245  00000+0  00000+0 0  9998
2 32388   2.5934  80.6645 0003724   0.0989  68.0013  1.00269479 67784
THURAYA-3
1 32404U 08001A   26164.96567689 -.00000072  00000+0  00000+0 0  9995
2 32404   5.9838  35.7936 0001550 160.3252 132.8728  1.00007445 67455
THOR 5
1 32487U 08006A   26164.90433366  .00000001  00000+0  00000+0 0  9990
2 32487   0.0264 261.3120 0002290 188.2660 137.4383  1.00270566 67286
AMC-14
1 32708U 08011A   26164.63226838 -.00000044  00000+0  00000+0 0  9994
2 32708  24.0004  20.5622 0045988   6.8842 166.6569  1.00354274 68134
DIRECTV 11
1 32729U 08013A   26164.45710639 -.00000114  00000+0  00000+0 0  9994
2 32729   0.0087 254.9847 0000317 115.1892 316.9799  1.00271658 45550
ICO G1
1 32763U 08016A   26164.60095463 -.00000166  00000+0  00000+0 0  9990
2 32763   5.5307  36.1495 0002380  35.5622 313.6880  1.00272526 66508
VINASAT-1
1 32767U 08018A   26164.93065235 -.00000318  00000+0  00000+0 0  9995
2 32767   0.0147 319.3639 0001140 131.0065 278.8586  1.00271619 66558
STAR ONE C2
1 32768U 08018B   26164.89159542 -.00000267  00000+0  00000+0 0  9999
2 32768   1.2325  82.4882 0002478   8.8539  66.8417  1.00270105 66625
AMOS-3
1 32794U 08022A   26164.92214043  .00000157  00000+0  00000+0 0  9992
2 32794   0.4468  86.2787 0002029  72.5713 111.8463  1.00473746 82304
GALAXY 18 (G-18)
1 32951U 08024A   26164.73757522  .00000000  00000+0  00000+0 0  9999
2 32951   0.0251   6.8014 0002682  72.3830 325.3812  1.00271427 45816
ZHONGXING-9
1 33051U 08028A   26164.96997655 -.00000240  00000+0  00000+0 0  9990
2 33051   0.7592  85.4146 0004054 336.8811 281.5686  1.00270670 66009
SKYNET 5C
1 33055U 08030A   26164.90104032 -.00000133  00000+0  00000+0 0  9991
2 33055   3.7804  77.0774 0003850  14.3679 117.3411  1.00271842 65923
TURKSAT 3A
1 33056U 08030B   26164.92658277  .00000156  00000+0  00000+0 0  9993
2 33056   0.0492  78.6996 0005091 348.8361 210.2616  1.00268862 52320
INTELSAT 25 (IS-25)
1 33153U 08034A   26164.93143235 -.00000265  00000+0  00000+0 0  9991
2 33153   2.7012  80.4086 0003119  58.9452 234.3418  0.99036317 65657
ECHOSTAR 11
1 33207U 08035A   26164.88275538 -.00000049  00000+0  00000+0 0  9998
2 33207   0.9963  84.2144 0002052 349.0827  36.8918  1.00271398 51180
SUPERBIRD-C2
1 33274U 08038A   26164.93143235 -.00000299  00000+0  00000+0 0  9996
2 33274   2.3524  81.3011 0005927  27.0106 265.2122  1.00268581105692
INMARSAT 4-F3
1 33278U 08039A   26164.44558519 -.00000132  00000+0  00000+0 0  9998
2 33278   4.2899  31.6188 0002816  52.3375 240.2113  1.00272733 46509
NIMIQ 4
1 33373U 08044A   26164.88830207 -.00000210  00000+0  00000+0 0  9992
2 33373   0.0028 357.7517 0002108  72.7751  69.4616  1.00272476 64951
GALAXY 19 (G-19)
1 33376U 08045A   26164.88526873  .00000000  00000+0  00000+0 0  9993
2 33376   0.0206 355.5349 0002410  91.0256  37.3324  1.00270337 64876
ASTRA 1M
1 33436U 08057A   26164.90878880  .00000130  00000+0  00000+0 0  9998
2 33436   0.2879  82.4130 0004621  22.8005 143.5320  1.00270160 45706
EUTELSAT HOTBIRD 13C
1 33459U 08065A   26164.89454209 -.00000275  00000+0  00000+0 0  9996
2 33459   2.9416  79.2277 0003271   2.8698  91.8459  1.00272048 47313
EXPRESS-AM44
1 33595U 09007A   26164.90234032 -.00000082  00000+0  00000+0 0  9992
2 33595   3.4538  78.4369 0003909 358.2647 139.3479  1.00271084 52256
NSS-9
1 33749U 09008A   26164.79821488  .00000081  00000+0  00000+0 0  9996
2 33749   1.2528  82.6872 0001862 348.4496 301.4034  1.00272653 63486
TELSTAR 11N
1 34111U 09009A   26164.89706703 -.00000241  00000+0  00000+0 0  9993
2 34111   0.0164  18.3753 0002152  58.2799 110.9338  1.00271492 46214
WGS F2 (USA 204)
1 34713U 09017A   26164.93995299  .00000078  00000+0  00000+0 0  9992
2 34713   0.0167 342.0726 0000548 271.7648  44.3043  1.00269536 45582
SES-7 (PROTOSTAR 2)
1 34941U 09027A   26164.92597233 -.00000335  00000+0  00000+0 0  9998
2 34941   0.0545  75.6552 0000555 252.6596  15.5353  1.00271150 62598
MEASAT-3A
1 35362U 09032A   26164.61364292 -.00000100  00000+0  00000+0 0  9995
2 35362   0.0307  28.8298 0002797  50.1136 203.8972  1.00271060  7992
GOES 14
1 35491U 09033A   26164.93299236 -.00000270  00000+0  00000+0 0  9997
2 35491   1.6815  83.0799 0001714  10.3122 288.4310  1.00111819  6557
FM-5
1 35493U 09034A   26164.88743541 -.00000190  00000+0  00000+0 0  9998
2 35493   0.0188 294.1596 0000933   7.5661 193.7979  1.00271423 46611
TERRESTAR-1
1 35496U 09035A   26164.66863006 -.00000050  00000+0  00000+0 0  9992
2 35496   5.1785  48.8015 0002783  28.4033 314.4736  1.00272856 62097
ASIASAT 5
1 35696U 09042A   26165.01669571 -.00000294  00000+0  00000+0 0  9993
2 35696   0.0188 300.1661 0002157  76.7246 351.9181  1.00247394 61670
JCSAT-12 (JCSAT-RA)
1 35755U 09044A   26164.93065235 -.00000318  00000+0  00000+0 0  9995
2 35755   0.0150 310.2689 0000656  10.6949  48.3463  1.00269654 61578
OPTUS D3
1 35756U 09044B   26164.86412197 -.00000135  00000+0  00000+0 0  9998
2 35756   0.8715 269.1826 0002779 177.2511 282.9661  1.00270171 61530
NIMIQ 5
1 35873U 09050A   26164.89012208 -.00000247  00000+0  00000+0 0  9991
2 35873   0.0195 291.6171 0002613 146.8208  71.5164  1.00271106 61314
AMAZONAS 2
1 35942U 09054A   26164.89020875 -.00000250  00000+0  00000+0 0  9995
2 35942   1.8068  83.0904 0003160 356.0269  71.5632  1.00269656 61155
COMSATBW-1
1 35943U 09054B   26164.94439797  .00000034  00000+0  00000+0 0  9998
2 35943   0.0735  77.7720 0002747  11.2439 216.2348  1.00272436 61278
NSS-12
1 36032U 09058A   26164.93995387  .00000081  00000+0  00000+0 0  9995
2 36032   0.0816  68.4491 0004478 341.7472 247.4305  1.00271987 60886
THOR 6
1 36033U 09058B   26164.90433366  .00000000  00000+0  00000+0 0  9998
2 36033   0.0140  13.1960 0001518  62.7239 151.0146  1.00270039 60978
INTELSAT 14 (IS-14)
1 36097U 09064A   26164.82433806 -.00000263  00000+0  00000+0 0  9997
2 36097   0.0148  37.5026 0002176  36.8370  79.5697  1.00270665 60574
EUTELSAT 36B
1 36101U 09065A   26164.93478096  .00000122  00000+0  00000+0 0  9999
2 36101   0.4830  81.0675 0005789   0.2728 207.9125  1.00272456 60675
INTELSAT 15 (IS-15)
1 36106U 09067A   26164.96318876 -.00000175  00000+0  00000+0 0  9997
2 36106   0.0178  43.4677 0002023  42.8649 247.8365  1.00270957 41196
WGS F3 (USA 211)
1 36108U 09068A   26164.73618854  .00000075  00000+0  00000+0 0  9992
2 36108   0.3290  85.7944 0000411 250.9277  60.3629  1.00265457 46555
DIRECTV 12
1 36131U 09075A   26164.67027672 -.00000092  00000+0  00000+0 0  9991
2 36131   0.0464 157.5074 0000584 209.9292  33.1205  1.00266386 46511
BEIDOU-2 G1
1 36287U 10001A   26164.93238569 -.00000273  00000+0  00000+0 0  9993
2 36287   4.2846  60.4151 0002303 299.2342  18.7286  1.00271622 60131
SDO
1 36395U 10005A   26164.30669706 -.00000088  00000+0  00000+0 0  9993
2 36395  34.6434  86.4016 0001673  51.3791 132.2019  1.00270114 60022
INTELSAT 16 (IS-16)
1 36397U 10006A   26164.81809803 -.00000234  00000+0  00000+0 0  9999
2 36397   0.0114 352.1137 0001841 109.4399  18.8935  1.00270593 59620
EWS-G2 (GOES 15)
1 36411U 10008A   26164.94561250  .00000027  00000+0  00000+0 0  9992
2 36411   1.2684  82.9143 0005351  41.5974 181.8413  1.00275715 59603
ECHOSTAR 14
1 36499U 10010A   26164.88084872  .00000010  00000+0  00000+0 0  9996
2 36499   0.0385  83.4029 0002291  17.7888 359.2172  1.00271982 46524
SES-1
1 36516U 10016A   26164.88448873 -.00000104  00000+0  00000+0 0  9992
2 36516   0.0184 316.2469 0002523 126.3649  36.9988  1.00270727 59003
ASTRA 3B
1 36581U 10021A   26164.91212906  .00000146  00000+0  00000+0 0  9995
2 36581   1.4618  83.5938 0004171   1.7771 168.7122  1.00269406 58836
COMSATBW-2
1 36582U 10021B   26164.90322890  .00000098  00000+0  00000+0 0  9995
2 36582   0.0375  58.8104 0002513  39.8501 141.8966  1.00271340 58921
BEIDOU-2 G3
1 36590U 10024A   26164.96166682 -.00000130  00000+0  00000+0 0  9996
2 36590   4.5069  61.5280 0007814 351.9281 274.7175  1.00271447 58732
